{
  "type": "FeatureCollection",
  "features": [
    {
      "type": "Feature",
      "properties": {
        "highway": "unclassified",
        "osmId": "way/277948407",
        "source": "OSM"
      },
      "geometry": {
        "type": "LineString",
        "coordinates": [
          [
            113.1962807,
            23.2701334
          ],
          [
            113.1963027,
            23.2700619
          ]
        ]
      }
    },
    {
      "type": "Feature",
      "properties": {
        "highway": "tertiary",
        "name": "\u9e64\u4e91\u8def",
        "name:en": "Heyun Road",
        "name:zh": "\u9e64\u4e91\u8def",
        "osmId": "way/277948413",
        "source": "OSM"
      },
      "geometry": {
        "type": "LineString",
        "coordinates": [
          [
            113.2131194,
            23.2697765
          ],
          [
            113.2127272,
            23.2697612
          ],
          [
            113.2123455,
            23.2697066
          ],
          [
            113.2118532,
            23.2696226
          ],
          [
            113.2113698,
            23.2695445
          ],
          [
            113.2113005,
            23.2695341
          ],
          [
            113.2103786,
            23.2693866
          ],
          [
            113.2099508,
            23.2693238
          ],
          [
            113.2095006,
            23.2692567
          ],
          [
            113.2094669,
            23.2692523
          ],
          [
            113.2092251,
            23.2692208
          ],
          [
            113.2088653,
            23.2691801
          ],
          [
            113.2083813,
            23.2691333
          ],
          [
            113.2079555,
            23.2691015
          ],
          [
            113.2079327,
            23.2692403
          ],
          [
            113.2066154,
            23.2690878
          ],
          [
            113.206019,
            23.2690173
          ],
          [
            113.2054621,
            23.2689596
          ]
        ]
      }
    },
    {
      "type": "Feature",
      "properties": {
        "highway": "unclassified",
        "osmId": "way/277948414",
        "source": "OSM"
      },
      "geometry": {
        "type": "LineString",
        "coordinates": [
          [
            113.1897997,
            23.2662913
          ],
          [
            113.1920586,
            23.2666461
          ],
          [
            113.1921471,
            23.2666559
          ],
          [
            113.1922678,
            23.2666486
          ],
          [
            113.1923671,
            23.2666559
          ],
          [
            113.1927689,
            23.26671
          ],
          [
            113.1967711,
            23.2673161
          ],
          [
            113.1970683,
            23.2673459
          ],
          [
            113.1974851,
            23.2674049
          ],
          [
            113.1990883,
            23.2676371
          ],
          [
            113.200633,
            23.2678683
          ],
          [
            113.2019022,
            23.2680659
          ],
          [
            113.2024286,
            23.2681421
          ],
          [
            113.202645,
            23.2681813
          ],
          [
            113.2028058,
            23.2682126
          ],
          [
            113.2029515,
            23.2682447
          ],
          [
            113.2031093,
            23.2682771
          ],
          [
            113.2032917,
            23.2683065
          ],
          [
            113.2033764,
            23.2683272
          ],
          [
            113.2044638,
            23.2684744
          ],
          [
            113.2045255,
            23.2684941
          ],
          [
            113.2045684,
            23.2685336
          ],
          [
            113.2045974,
            23.2685852
          ],
          [
            113.2046087,
            23.2686371
          ],
          [
            113.2045895,
            23.2687796
          ],
          [
            113.2045679,
            23.268839
          ],
          [
            113.2045309,
            23.2688785
          ],
          [
            113.2044799,
            23.2689056
          ],
          [
            113.2044204,
            23.2689178
          ],
          [
            113.2043619,
            23.268918
          ],
          [
            113.2042997,
            23.2689129
          ],
          [
            113.2034133,
            23.2687626
          ],
          [
            113.2031517,
            23.2687334
          ],
          [
            113.2029507,
            23.2687137
          ],
          [
            113.2027879,
            23.268699
          ],
          [
            113.2025969,
            23.2686833
          ],
          [
            113.2024036,
            23.2686613
          ],
          [
            113.2022102,
            23.2686351
          ],
          [
            113.2020149,
            23.2686028
          ],
          [
            113.2018241,
            23.2685628
          ],
          [
            113.1986086,
            23.268095
          ],
          [
            113.1985356,
            23.2680874
          ],
          [
            113.1984847,
            23.2680973
          ],
          [
            113.1984369,
            23.2681245
          ],
          [
            113.1983881,
            23.2681589
          ],
          [
            113.1982465,
            23.2682822
          ],
          [
            113.1982036,
            23.2683143
          ],
          [
            113.1981499,
            23.268334
          ],
          [
            113.1980963,
            23.2683432
          ],
          [
            113.1980239,
            23.2683389
          ],
          [
            113.1979619,
            23.2683288
          ],
          [
            113.1969353,
            23.2681659
          ],
          [
            113.196692,
            23.2681268
          ],
          [
            113.196144,
            23.2680633
          ],
          [
            113.1960929,
            23.26805
          ],
          [
            113.1960524,
            23.2680157
          ],
          [
            113.1960229,
            23.2679718
          ],
          [
            113.1959553,
            23.2677967
          ],
          [
            113.1959317,
            23.2677475
          ],
          [
            113.1959076,
            23.267713
          ],
          [
            113.1958615,
            23.2676907
          ],
          [
            113.1958084,
            23.2676785
          ],
          [
            113.1933745,
            23.267322
          ],
          [
            113.1932678,
            23.2673063
          ],
          [
            113.1923429,
            23.2671759
          ],
          [
            113.1922485,
            23.2671659
          ],
          [
            113.192182,
            23.2671463
          ],
          [
            113.192123,
            23.2671217
          ],
          [
            113.1920554,
            23.2670969
          ],
          [
            113.1919642,
            23.2670796
          ],
          [
            113.1897144,
            23.2667594
          ],
          [
            113.1896548,
            23.2667495
          ],
          [
            113.1896044,
            23.2667225
          ],
          [
            113.1895717,
            23.2666854
          ],
          [
            113.1895454,
            23.2666288
          ],
          [
            113.1895347,
            23.2665771
          ],
          [
            113.1895376,
            23.2665231
          ],
          [
            113.1895556,
            23.2664243
          ],
          [
            113.1895776,
            23.266375
          ],
          [
            113.1896071,
            23.2663332
          ],
          [
            113.1896446,
            23.2663036
          ],
          [
            113.1896901,
            23.2662867
          ],
          [
            113.189747,
            23.2662839
          ],
          [
            113.1897997,
            23.2662913
          ]
        ]
      }
    },
    {
      "type": "Feature",
      "properties": {
        "highway": "residential",
        "name": "\u5927\u7530\u897f\u8def",
        "name:en": "Datian West Road",
        "name:zh": "\u5927\u7530\u897f\u8def",
        "osmId": "way/445055668",
        "source": "OSM"
      },
      "geometry": {
        "type": "LineString",
        "coordinates": [
          [
            113.195678,
            23.2718569
          ],
          [
            113.1959345,
            23.271921
          ],
          [
            113.1961241,
            23.2719235
          ],
          [
            113.1962384,
            23.2719133
          ],
          [
            113.1963444,
            23.2719082
          ],
          [
            113.196442,
            23.2719082
          ],
          [
            113.1967822,
            23.2719824
          ],
          [
            113.1970052,
            23.2720311
          ],
          [
            113.1971168,
            23.27209
          ],
          [
            113.1973092,
            23.2721694
          ],
          [
            113.1975517,
            23.2722079
          ],
          [
            113.1976103,
            23.272236
          ],
          [
            113.1977358,
            23.2723078
          ],
          [
            113.197786,
            23.2723769
          ],
          [
            113.1978613,
            23.2727022
          ],
          [
            113.1979031,
            23.2728457
          ],
          [
            113.1979254,
            23.272902
          ],
          [
            113.198009,
            23.2729379
          ],
          [
            113.1981596,
            23.2729686
          ],
          [
            113.1984942,
            23.2729994
          ],
          [
            113.1992499,
            23.2730993
          ],
          [
            113.1993725,
            23.2731249
          ],
          [
            113.1995008,
            23.2731454
          ],
          [
            113.199749,
            23.2731146
          ],
          [
            113.1999274,
            23.2731146
          ],
          [
            113.2001394,
            23.2731198
          ],
          [
            113.2004907,
            23.2731838
          ],
          [
            113.2009247,
            23.273231
          ],
          [
            113.2013506,
            23.2732346
          ],
          [
            113.2015055,
            23.2732477
          ]
        ]
      }
    },
    {
      "type": "Feature",
      "properties": {
        "highway": "tertiary",
        "name": "\u73af\u9547\u897f\u8def",
        "name:en": "Huanzhen West Road",
        "name:zh": "\u73af\u9547\u897f\u8def",
        "oneway": "yes",
        "osmId": "way/445055682",
        "source": "OSM"
      },
      "geometry": {
        "type": "LineString",
        "coordinates": [
          [
            113.2082001,
            23.278723
          ],
          [
            113.208517,
            23.2787152
          ],
          [
            113.2090042,
            23.2787399
          ],
          [
            113.2104677,
            23.2788179
          ],
          [
            113.211083,
            23.2788521
          ],
          [
            113.2118197,
            23.2788943
          ],
          [
            113.2133291,
            23.2789772
          ],
          [
            113.2145767,
            23.2790455
          ],
          [
            113.2158154,
            23.279117
          ],
          [
            113.2163561,
            23.2791472
          ],
          [
            113.2165935,
            23.2791612
          ],
          [
            113.2166529,
            23.2791657
          ]
        ]
      }
    },
    {
      "type": "Feature",
      "properties": {
        "highway": "tertiary",
        "name": "\u73af\u9547\u897f\u8def",
        "name:en": "Huanzhen West Road",
        "name:zh": "\u73af\u9547\u897f\u8def",
        "oneway": "yes",
        "osmId": "way/445055688",
        "source": "OSM"
      },
      "geometry": {
        "type": "LineString",
        "coordinates": [
          [
            113.2082001,
            23.278723
          ],
          [
            113.2081771,
            23.2784853
          ],
          [
            113.208177,
            23.2783548
          ],
          [
            113.2081638,
            23.2763379
          ],
          [
            113.2081498,
            23.2756014
          ],
          [
            113.2081475,
            23.2752077
          ],
          [
            113.2081307,
            23.2750749
          ]
        ]
      }
    },
    {
      "type": "Feature",
      "properties": {
        "highway": "motorway",
        "lanes": "4",
        "name": "\u8bb8\u5e7f\u9ad8\u901f",
        "name:en": "Xuchang\u2013Guangzhou Expressway",
        "name:zh": "\u8bb8\u5e7f\u9ad8\u901f",
        "name:zh-Hant": "\u8a31\u5ee3\u9ad8\u901f",
        "oneway": "yes",
        "ref": "G0421",
        "source": "GPS",
        "surface": "asphalt",
        "osmId": "way/481306871"
      },
      "geometry": {
        "type": "LineString",
        "coordinates": [
          [
            113.2050534,
            23.2676978
          ],
          [
            113.2053651,
            23.2696136
          ]
        ]
      }
    },
    {
      "type": "Feature",
      "properties": {
        "highway": "tertiary",
        "name": "\u51e4\u7fd4\u5317\u8def",
        "name:en": "Fengxiang North Road",
        "name:zh": "\u51e4\u7fd4\u5317\u8def",
        "osmId": "way/522186843",
        "source": "OSM"
      },
      "geometry": {
        "type": "LineString",
        "coordinates": [
          [
            113.2094669,
            23.2692523
          ],
          [
            113.2091797,
            23.2700785
          ],
          [
            113.2087632,
            23.271286
          ],
          [
            113.2083555,
            23.2725134
          ]
        ]
      }
    },
    {
      "type": "Feature",
      "properties": {
        "highway": "tertiary",
        "oneway": "yes",
        "osmId": "way/522186844",
        "source": "OSM"
      },
      "geometry": {
        "type": "LineString",
        "coordinates": [
          [
            113.2094669,
            23.2692523
          ],
          [
            113.2093365,
            23.2689242
          ],
          [
            113.209574,
            23.2682096
          ],
          [
            113.2099048,
            23.2672444
          ],
          [
            113.2101196,
            23.2666372
          ]
        ]
      }
    },
    {
      "type": "Feature",
      "properties": {
        "highway": "tertiary",
        "name": "\u7530\u5357\u8def",
        "name:en": "Tiannan Road",
        "name:zh": "\u7530\u5357\u8def",
        "osmId": "way/522186845",
        "source": "OSM"
      },
      "geometry": {
        "type": "LineString",
        "coordinates": [
          [
            113.2059911,
            23.272247
          ],
          [
            113.2059815,
            23.2721943
          ]
        ]
      }
    },
    {
      "type": "Feature",
      "properties": {
        "bridge": "yes",
        "highway": "tertiary",
        "layer": "1",
        "name": "\u7530\u5357\u8def",
        "name:en": "Tiannan Road",
        "name:zh": "\u7530\u5357\u8def",
        "osmId": "way/522186846",
        "source": "OSM"
      },
      "geometry": {
        "type": "LineString",
        "coordinates": [
          [
            113.2060368,
            23.2724968
          ],
          [
            113.2059911,
            23.272247
          ]
        ]
      }
    },
    {
      "type": "Feature",
      "properties": {
        "highway": "tertiary",
        "name": "\u6c5f\u57ce\u8def",
        "name:en": "Jiangcheng Road",
        "name:zh": "\u6c5f\u57ce\u8def",
        "oneway": "yes",
        "osmId": "way/522186847",
        "source": "OSM"
      },
      "geometry": {
        "type": "LineString",
        "coordinates": [
          [
            113.208581,
            23.2745907
          ],
          [
            113.2087327,
            23.2745122
          ],
          [
            113.2092165,
            23.2743141
          ],
          [
            113.2095124,
            23.2742012
          ],
          [
            113.2097149,
            23.2741249
          ],
          [
            113.2099246,
            23.2740589
          ],
          [
            113.2101065,
            23.2740155
          ],
          [
            113.21027,
            23.2739816
          ],
          [
            113.2104041,
            23.2739617
          ],
          [
            113.2104684,
            23.2739547
          ],
          [
            113.2105422,
            23.2739542
          ]
        ]
      }
    },
    {
      "type": "Feature",
      "properties": {
        "highway": "tertiary",
        "name": "\u6c5f\u77f3\u897f\u8def",
        "name:en": "Jiangshi West Road",
        "name:zh": "\u6c5f\u77f3\u897f\u8def",
        "oneway": "yes",
        "osmId": "way/522186849",
        "source": "OSM"
      },
      "geometry": {
        "type": "LineString",
        "coordinates": [
          [
            113.2086395,
            23.2746349
          ],
          [
            113.2085866,
            23.2746892
          ],
          [
            113.208488,
            23.274791
          ],
          [
            113.2083023,
            23.2750264
          ],
          [
            113.20825,
            23.2750944
          ],
          [
            113.2082044,
            23.2751437
          ]
        ]
      }
    },
    {
      "type": "Feature",
      "properties": {
        "highway": "tertiary",
        "name": "\u6c5f\u77f3\u897f\u8def",
        "name:en": "Jiangshi West Road",
        "name:zh": "\u6c5f\u77f3\u897f\u8def",
        "oneway": "yes",
        "osmId": "way/522186850",
        "source": "OSM"
      },
      "geometry": {
        "type": "LineString",
        "coordinates": [
          [
            113.2047584,
            23.2774867
          ],
          [
            113.2047559,
            23.2774056
          ],
          [
            113.2047925,
            23.2773253
          ],
          [
            113.2048575,
            23.2772263
          ],
          [
            113.2049978,
            23.2770639
          ],
          [
            113.2050455,
            23.2770172
          ],
          [
            113.2050913,
            23.2769724
          ]
        ]
      }
    },
    {
      "type": "Feature",
      "properties": {
        "highway": "tertiary",
        "name": "\u79cb\u9e7f\u8def",
        "name:en": "Qiulu Road",
        "name:zh": "\u79cb\u9e7f\u8def",
        "oneway": "yes",
        "osmId": "way/522423183",
        "source": "OSM"
      },
      "geometry": {
        "type": "LineString",
        "coordinates": [
          [
            113.2059815,
            23.2721943
          ],
          [
            113.2063449,
            23.2722439
          ],
          [
            113.2067359,
            23.2722979
          ],
          [
            113.2074447,
            23.2723919
          ],
          [
            113.2083555,
            23.2725134
          ]
        ]
      }
    },
    {
      "type": "Feature",
      "properties": {
        "highway": "tertiary",
        "name": "\u51e4\u7fd4\u5317\u8def",
        "name:en": "Fengxiang North Road",
        "name:zh": "\u51e4\u7fd4\u5317\u8def",
        "osmId": "way/524279702",
        "source": "OSM"
      },
      "geometry": {
        "type": "LineString",
        "coordinates": [
          [
            113.2083555,
            23.2725134
          ],
          [
            113.2083395,
            23.2725665
          ]
        ]
      }
    },
    {
      "type": "Feature",
      "properties": {
        "highway": "tertiary",
        "name": "\u79cb\u9e7f\u8def",
        "name:en": "Qiulu Road",
        "name:zh": "\u79cb\u9e7f\u8def",
        "oneway": "yes",
        "osmId": "way/524279703",
        "source": "OSM"
      },
      "geometry": {
        "type": "LineString",
        "coordinates": [
          [
            113.2083395,
            23.2725665
          ],
          [
            113.2074104,
            23.2724441
          ],
          [
            113.2059911,
            23.272247
          ]
        ]
      }
    },
    {
      "type": "Feature",
      "properties": {
        "highway": "tertiary",
        "name": "\u7530\u5357\u8def",
        "name:en": "Tiannan Road",
        "name:zh": "\u7530\u5357\u8def",
        "osmId": "way/524279704",
        "source": "OSM"
      },
      "geometry": {
        "type": "LineString",
        "coordinates": [
          [
            113.2063531,
            23.2743752
          ],
          [
            113.2062655,
            23.2738386
          ],
          [
            113.2061176,
            23.2728552
          ],
          [
            113.2060368,
            23.2724968
          ]
        ]
      }
    },
    {
      "type": "Feature",
      "properties": {
        "highway": "tertiary",
        "name": "\u6c5f\u77f3\u897f\u8def",
        "name:en": "Jiangshi West Road",
        "name:zh": "\u6c5f\u77f3\u897f\u8def",
        "oneway": "yes",
        "osmId": "way/524279705",
        "source": "OSM"
      },
      "geometry": {
        "type": "LineString",
        "coordinates": [
          [
            113.2050913,
            23.2769724
          ],
          [
            113.2051984,
            23.2768815
          ],
          [
            113.2054527,
            23.2767065
          ],
          [
            113.2057011,
            23.2765474
          ],
          [
            113.2065074,
            23.2760559
          ],
          [
            113.2065876,
            23.2760078
          ],
          [
            113.2071257,
            23.2756846
          ],
          [
            113.2078186,
            23.275269
          ]
        ]
      }
    },
    {
      "type": "Feature",
      "properties": {
        "highway": "tertiary",
        "name": "\u6c5f\u57ce\u8def",
        "name:en": "Jiangcheng Road",
        "name:zh": "\u6c5f\u57ce\u8def",
        "oneway": "yes",
        "osmId": "way/524279716",
        "source": "OSM"
      },
      "geometry": {
        "type": "LineString",
        "coordinates": [
          [
            113.2105674,
            23.2740238
          ],
          [
            113.2104643,
            23.2740276
          ],
          [
            113.2103435,
            23.2740396
          ],
          [
            113.2102107,
            23.2740607
          ],
          [
            113.2100857,
            23.2740898
          ],
          [
            113.2098158,
            23.2741633
          ],
          [
            113.2093085,
            23.2743582
          ],
          [
            113.2088966,
            23.2745221
          ],
          [
            113.2087793,
            23.274571
          ],
          [
            113.2086938,
            23.2746086
          ],
          [
            113.2086395,
            23.2746349
          ]
        ]
      }
    },
    {
      "type": "Feature",
      "properties": {
        "highway": "tertiary",
        "name": "\u7530\u5357\u8def",
        "name:en": "Tiannan Road",
        "name:zh": "\u7530\u5357\u8def",
        "osmId": "way/524279718",
        "source": "OSM"
      },
      "geometry": {
        "type": "LineString",
        "coordinates": [
          [
            113.2059815,
            23.2721943
          ],
          [
            113.2059522,
            23.2720339
          ],
          [
            113.205929,
            23.2718371
          ],
          [
            113.2057665,
            23.270827
          ],
          [
            113.2055968,
            23.2698395
          ],
          [
            113.2054621,
            23.2689596
          ],
          [
            113.2053556,
            23.268264
          ],
          [
            113.2051948,
            23.2672406
          ],
          [
            113.2051128,
            23.2666646
          ],
          [
            113.2050455,
            23.2661926
          ],
          [
            113.2048432,
            23.2643535
          ],
          [
            113.2046353,
            23.2626464
          ],
          [
            113.204479,
            23.2614906
          ],
          [
            113.2043923,
            23.2601977
          ],
          [
            113.2043899,
            23.259919
          ],
          [
            113.2043878,
            23.2596181
          ],
          [
            113.2043698,
            23.2590143
          ],
          [
            113.2043285,
            23.2584313
          ],
          [
            113.2042555,
            23.2569385
          ],
          [
            113.2041676,
            23.2553692
          ]
        ]
      }
    },
    {
      "type": "Feature",
      "properties": {
        "highway": "tertiary",
        "name": "\u79cb\u9e7f\u8def",
        "name:en": "Qiulu Road",
        "name:zh": "\u79cb\u9e7f\u8def",
        "oneway": "yes",
        "osmId": "way/524279719",
        "source": "OSM"
      },
      "geometry": {
        "type": "LineString",
        "coordinates": [
          [
            113.2083555,
            23.2725134
          ],
          [
            113.2098557,
            23.2727278
          ],
          [
            113.2107354,
            23.2728532
          ]
        ]
      }
    },
    {
      "type": "Feature",
      "properties": {
        "highway": "tertiary",
        "name": "\u51e4\u7fd4\u4e2d\u8def",
        "name:en": "Fengxiang Middle Road",
        "name:zh": "\u51e4\u7fd4\u4e2d\u8def",
        "oneway": "yes",
        "osmId": "way/524279814",
        "source": "OSM"
      },
      "geometry": {
        "type": "LineString",
        "coordinates": [
          [
            113.2103828,
            23.2666366
          ],
          [
            113.2102081,
            23.2671107
          ],
          [
            113.2098015,
            23.2682986
          ],
          [
            113.2094669,
            23.2692523
          ]
        ]
      }
    },
    {
      "type": "Feature",
      "properties": {
        "highway": "tertiary",
        "name": "\u73af\u9547\u897f\u8def",
        "name:en": "Huanzhen West Road",
        "name:zh": "\u73af\u9547\u897f\u8def",
        "oneway": "yes",
        "osmId": "way/527083428",
        "source": "OSM"
      },
      "geometry": {
        "type": "LineString",
        "coordinates": [
          [
            113.2081307,
            23.2750749
          ],
          [
            113.2082044,
            23.2751437
          ]
        ]
      }
    },
    {
      "type": "Feature",
      "properties": {
        "highway": "tertiary",
        "name": "\u73af\u9547\u897f\u8def",
        "name:en": "Huanzhen West Road",
        "name:zh": "\u73af\u9547\u897f\u8def",
        "oneway": "yes",
        "osmId": "way/527083429",
        "source": "OSM"
      },
      "geometry": {
        "type": "LineString",
        "coordinates": [
          [
            113.2166229,
            23.2792339
          ],
          [
            113.2149634,
            23.2791385
          ],
          [
            113.2132229,
            23.2790371
          ],
          [
            113.2117006,
            23.278953
          ],
          [
            113.2116733,
            23.2789515
          ],
          [
            113.2112175,
            23.2789266
          ],
          [
            113.2111618,
            23.2789236
          ],
          [
            113.2109994,
            23.2789147
          ],
          [
            113.2109468,
            23.2789118
          ],
          [
            113.2105378,
            23.2788894
          ],
          [
            113.2085092,
            23.2787785
          ],
          [
            113.2082001,
            23.278723
          ]
        ]
      }
    },
    {
      "type": "Feature",
      "properties": {
        "highway": "tertiary",
        "oneway": "yes",
        "osmId": "way/527083430",
        "source": "OSM"
      },
      "geometry": {
        "type": "LineString",
        "coordinates": [
          [
            113.2078186,
            23.275269
          ],
          [
            113.2078719,
            23.2752687
          ],
          [
            113.2079048,
            23.275284
          ],
          [
            113.2079454,
            23.2753095
          ],
          [
            113.2079623,
            23.2753573
          ],
          [
            113.2079614,
            23.2753876
          ],
          [
            113.2079406,
            23.2754726
          ],
          [
            113.207908,
            23.2755775
          ],
          [
            113.2078812,
            23.2756818
          ],
          [
            113.2078576,
            23.2758032
          ],
          [
            113.2078661,
            23.2760087
          ],
          [
            113.2078759,
            23.276265
          ],
          [
            113.2078918,
            23.276624
          ],
          [
            113.2079025,
            23.2767572
          ],
          [
            113.2079131,
            23.2768819
          ],
          [
            113.2079335,
            23.2770813
          ],
          [
            113.2079507,
            23.277302
          ],
          [
            113.2079557,
            23.2774126
          ],
          [
            113.2079528,
            23.277504
          ],
          [
            113.2079407,
            23.2775921
          ],
          [
            113.2079193,
            23.2776835
          ],
          [
            113.2078896,
            23.2777771
          ],
          [
            113.2078553,
            23.2778527
          ],
          [
            113.2078142,
            23.2779218
          ],
          [
            113.2077536,
            23.2780021
          ],
          [
            113.2076923,
            23.2780711
          ],
          [
            113.2076196,
            23.2781344
          ],
          [
            113.2075228,
            23.278203
          ],
          [
            113.2074359,
            23.2782483
          ],
          [
            113.207342,
            23.2782889
          ],
          [
            113.2072575,
            23.2783197
          ],
          [
            113.2071502,
            23.2783542
          ],
          [
            113.2070161,
            23.2783924
          ],
          [
            113.2069139,
            23.2784268
          ],
          [
            113.2068576,
            23.2784544
          ],
          [
            113.2068503,
            23.278458
          ],
          [
            113.2067764,
            23.2785001
          ],
          [
            113.2067219,
            23.2785391
          ],
          [
            113.2066517,
            23.2786004
          ],
          [
            113.2065962,
            23.2786807
          ],
          [
            113.2065429,
            23.2787714
          ],
          [
            113.2065032,
            23.27888
          ],
          [
            113.2064747,
            23.2790015
          ],
          [
            113.2064442,
            23.2792535
          ]
        ]
      }
    },
    {
      "type": "Feature",
      "properties": {
        "highway": "tertiary",
        "name": "\u73af\u9547\u897f\u8def",
        "name:en": "Huanzhen West Road",
        "name:zh": "\u73af\u9547\u897f\u8def",
        "osmId": "way/527083432",
        "source": "OSM"
      },
      "geometry": {
        "type": "LineString",
        "coordinates": [
          [
            113.2082001,
            23.278723
          ],
          [
            113.207815,
            23.2787124
          ],
          [
            113.2075532,
            23.2786936
          ],
          [
            113.2071226,
            23.2786707
          ],
          [
            113.2070546,
            23.278671
          ],
          [
            113.2069984,
            23.2786713
          ],
          [
            113.2069367,
            23.278675
          ],
          [
            113.2068496,
            23.2787021
          ],
          [
            113.2067772,
            23.2787489
          ],
          [
            113.2066833,
            23.2788465
          ],
          [
            113.2066265,
            23.2789197
          ],
          [
            113.2065499,
            23.2790516
          ],
          [
            113.2065027,
            23.2791313
          ],
          [
            113.2064442,
            23.2792535
          ]
        ]
      }
    },
    {
      "type": "Feature",
      "properties": {
        "bridge": "viaduct",
        "highway": "motorway",
        "lanes": "4",
        "layer": "1",
        "name": "\u8bb8\u5e7f\u9ad8\u901f",
        "name:en": "Xuchang\u2013Guangzhou Expressway",
        "name:zh": "\u8bb8\u5e7f\u9ad8\u901f",
        "name:zh-Hant": "\u8a31\u5ee3\u9ad8\u901f",
        "oneway": "yes",
        "ref": "G0421",
        "source": "GPS",
        "surface": "asphalt",
        "osmId": "way/527083447"
      },
      "geometry": {
        "type": "LineString",
        "coordinates": [
          [
            113.2053651,
            23.2696136
          ],
          [
            113.2056686,
            23.2716988
          ],
          [
            113.2059612,
            23.2736848
          ],
          [
            113.2061326,
            23.2747736
          ],
          [
            113.2062265,
            23.2756366
          ],
          [
            113.2063157,
            23.2767526
          ],
          [
            113.2063232,
            23.2779392
          ],
          [
            113.2062729,
            23.2787613
          ],
          [
            113.2061507,
            23.2799023
          ],
          [
            113.2058323,
            23.2815602
          ],
          [
            113.2054703,
            23.2827718
          ],
          [
            113.2051381,
            23.2836486
          ],
          [
            113.2042728,
            23.285557
          ],
          [
            113.2028999,
            23.2881614
          ]
        ]
      }
    },
    {
      "type": "Feature",
      "properties": {
        "highway": "tertiary",
        "name": "\u5c0f\u5858\u4e1c\u8def",
        "name:en": "Xiaotang East Road",
        "name:zh": "\u5c0f\u5858\u4e1c\u8def",
        "osmId": "way/527085908",
        "source": "OSM"
      },
      "geometry": {
        "type": "LineString",
        "coordinates": [
          [
            113.2047584,
            23.2774867
          ],
          [
            113.2047282,
            23.2775996
          ],
          [
            113.204708,
            23.2776972
          ],
          [
            113.2047,
            23.2777798
          ],
          [
            113.204704,
            23.2778885
          ],
          [
            113.2047107,
            23.2779806
          ],
          [
            113.2047208,
            23.2780988
          ],
          [
            113.2047329,
            23.2782126
          ],
          [
            113.2047339,
            23.2782852
          ],
          [
            113.2047242,
            23.2783496
          ],
          [
            113.2047106,
            23.2784
          ],
          [
            113.2047007,
            23.2784365
          ],
          [
            113.2046746,
            23.2785036
          ],
          [
            113.204632,
            23.2786033
          ],
          [
            113.2046266,
            23.2786163
          ],
          [
            113.2045943,
            23.2786946
          ],
          [
            113.2045698,
            23.2787846
          ],
          [
            113.2045556,
            23.2788752
          ],
          [
            113.2045594,
            23.2789615
          ],
          [
            113.2045808,
            23.2790535
          ],
          [
            113.2046148,
            23.2791655
          ],
          [
            113.2046234,
            23.2791938
          ],
          [
            113.2047361,
            23.2795563
          ],
          [
            113.2047865,
            23.2797346
          ],
          [
            113.2048283,
            23.2798976
          ],
          [
            113.2048574,
            23.2800348
          ],
          [
            113.2048679,
            23.2801312
          ],
          [
            113.2048717,
            23.2802009
          ],
          [
            113.204868,
            23.2802798
          ],
          [
            113.204835,
            23.2803702
          ],
          [
            113.2047959,
            23.2804401
          ],
          [
            113.2047393,
            23.2804995
          ],
          [
            113.204676,
            23.2805489
          ],
          [
            113.2045773,
            23.2806225
          ],
          [
            113.2044473,
            23.2807225
          ],
          [
            113.2043405,
            23.2808261
          ],
          [
            113.2042452,
            23.2809293
          ],
          [
            113.2041501,
            23.2810494
          ],
          [
            113.2040604,
            23.281179
          ],
          [
            113.2040171,
            23.2812501
          ]
        ]
      }
    },
    {
      "type": "Feature",
      "properties": {
        "highway": "service",
        "oneway": "yes",
        "service": "driveway",
        "osmId": "way/527085909",
        "source": "OSM"
      },
      "geometry": {
        "type": "LineString",
        "coordinates": [
          [
            113.2047584,
            23.2774867
          ],
          [
            113.2046868,
            23.2774616
          ],
          [
            113.2046177,
            23.277428
          ],
          [
            113.2045913,
            23.2773682
          ],
          [
            113.2045811,
            23.2772749
          ],
          [
            113.2045768,
            23.2769122
          ]
        ]
      }
    },
    {
      "type": "Feature",
      "properties": {
        "highway": "motorway",
        "lanes": "4",
        "name": "\u8bb8\u5e7f\u9ad8\u901f",
        "name:en": "Xuchang\u2013Guangzhou Expressway",
        "name:zh": "\u8bb8\u5e7f\u9ad8\u901f",
        "name:zh-Hant": "\u8a31\u5ee3\u9ad8\u901f",
        "oneway": "yes",
        "ref": "G0421",
        "source": "GPS",
        "surface": "asphalt",
        "osmId": "way/533338733"
      },
      "geometry": {
        "type": "LineString",
        "coordinates": [
          [
            113.2051863,
            23.2696501
          ],
          [
            113.2050405,
            23.2686004
          ],
          [
            113.2048938,
            23.2677134
          ]
        ]
      }
    },
    {
      "type": "Feature",
      "properties": {
        "bridge": "viaduct",
        "highway": "motorway",
        "lanes": "4",
        "layer": "1",
        "name": "\u8bb8\u5e7f\u9ad8\u901f",
        "name:en": "Xuchang\u2013Guangzhou Expressway",
        "name:zh": "\u8bb8\u5e7f\u9ad8\u901f",
        "name:zh-Hant": "\u8a31\u5ee3\u9ad8\u901f",
        "oneway": "yes",
        "ref": "G0421",
        "source": "GPS",
        "surface": "asphalt",
        "osmId": "way/533338734"
      },
      "geometry": {
        "type": "LineString",
        "coordinates": [
          [
            113.2027063,
            23.2881627
          ],
          [
            113.2030379,
            23.2875578
          ],
          [
            113.2044369,
            23.2847753
          ],
          [
            113.2049839,
            23.283516
          ],
          [
            113.205359,
            23.2824628
          ],
          [
            113.2056316,
            23.2815465
          ],
          [
            113.2057938,
            23.2807301
          ],
          [
            113.2059677,
            23.2799022
          ],
          [
            113.2060462,
            23.2791423
          ],
          [
            113.2061304,
            23.278044
          ],
          [
            113.2061497,
            23.2767413
          ],
          [
            113.20611,
            23.2761306
          ],
          [
            113.205957,
            23.2747751
          ],
          [
            113.2057941,
            23.273596
          ],
          [
            113.2054084,
            23.2711066
          ],
          [
            113.2051863,
            23.2696501
          ]
        ]
      }
    },
    {
      "type": "Feature",
      "properties": {
        "highway": "tertiary",
        "name": "\u6c5f\u77f3\u897f\u8def",
        "name:en": "Jiangshi West Road",
        "name:zh": "\u6c5f\u77f3\u897f\u8def",
        "oneway": "yes",
        "osmId": "way/533353131",
        "source": "OSM"
      },
      "geometry": {
        "type": "LineString",
        "coordinates": [
          [
            113.2082044,
            23.2751437
          ],
          [
            113.2081475,
            23.2752077
          ],
          [
            113.2079454,
            23.2753095
          ],
          [
            113.2078365,
            23.275361
          ],
          [
            113.2077438,
            23.2754098
          ],
          [
            113.2075993,
            23.2754981
          ],
          [
            113.2074637,
            23.2755696
          ]
        ]
      }
    },
    {
      "type": "Feature",
      "properties": {
        "highway": "tertiary",
        "name": "\u73af\u9547\u897f\u8def",
        "name:en": "Huanzhen West Road",
        "name:zh": "\u73af\u9547\u897f\u8def",
        "oneway": "yes",
        "osmId": "way/533353132",
        "source": "OSM"
      },
      "geometry": {
        "type": "LineString",
        "coordinates": [
          [
            113.2082044,
            23.2751437
          ],
          [
            113.2082359,
            23.2752882
          ],
          [
            113.2082385,
            23.275415
          ],
          [
            113.2082278,
            23.2756671
          ],
          [
            113.2082319,
            23.2759803
          ],
          [
            113.208243,
            23.2771707
          ],
          [
            113.2082384,
            23.2784871
          ],
          [
            113.2082001,
            23.278723
          ]
        ]
      }
    },
    {
      "type": "Feature",
      "properties": {
        "highway": "tertiary",
        "oneway": "yes",
        "osmId": "way/533353134",
        "source": "OSM"
      },
      "geometry": {
        "type": "LineString",
        "coordinates": [
          [
            113.2064442,
            23.2792535
          ],
          [
            113.2063722,
            23.2797582
          ],
          [
            113.2062992,
            23.2802541
          ],
          [
            113.2062436,
            23.2806051
          ],
          [
            113.2061859,
            23.2809623
          ],
          [
            113.2061356,
            23.2812682
          ],
          [
            113.2060995,
            23.2814781
          ],
          [
            113.2060121,
            23.2819619
          ],
          [
            113.2059523,
            23.2822405
          ],
          [
            113.205915,
            23.2823923
          ],
          [
            113.2058745,
            23.2825312
          ],
          [
            113.2058211,
            23.2827079
          ],
          [
            113.2057469,
            23.2829349
          ],
          [
            113.205652,
            23.2831873
          ]
        ]
      }
    },
    {
      "type": "Feature",
      "properties": {
        "highway": "tertiary",
        "name": "\u6c5f\u77f3\u897f\u8def",
        "name:en": "Jiangshi West Road",
        "name:zh": "\u6c5f\u77f3\u897f\u8def",
        "oneway": "yes",
        "osmId": "way/533367835",
        "source": "OSM"
      },
      "geometry": {
        "type": "LineString",
        "coordinates": [
          [
            113.2081307,
            23.2750749
          ],
          [
            113.2082318,
            23.2749841
          ],
          [
            113.2083177,
            23.274889
          ],
          [
            113.2083697,
            23.2748271
          ],
          [
            113.2084148,
            23.2747734
          ],
          [
            113.2085237,
            23.274651
          ],
          [
            113.208581,
            23.2745907
          ]
        ]
      }
    },
    {
      "type": "Feature",
      "properties": {
        "highway": "service",
        "oneway": "yes",
        "service": "driveway",
        "osmId": "way/533712615",
        "source": "OSM"
      },
      "geometry": {
        "type": "LineString",
        "coordinates": [
          [
            113.2045768,
            23.2769122
          ],
          [
            113.2045758,
            23.2768313
          ],
          [
            113.2045751,
            23.276769
          ]
        ]
      }
    },
    {
      "type": "Feature",
      "properties": {
        "highway": "tertiary",
        "oneway": "yes",
        "osmId": "way/533713415",
        "source": "OSM"
      },
      "geometry": {
        "type": "LineString",
        "coordinates": [
          [
            113.2045751,
            23.276769
          ],
          [
            113.2047628,
            23.2768389
          ],
          [
            113.2048869,
            23.2768878
          ],
          [
            113.2050108,
            23.2769366
          ],
          [
            113.2050913,
            23.2769724
          ]
        ]
      }
    },
    {
      "type": "Feature",
      "properties": {
        "highway": "tertiary",
        "oneway": "yes",
        "osmId": "way/533713416",
        "source": "OSM"
      },
      "geometry": {
        "type": "LineString",
        "coordinates": [
          [
            113.2050913,
            23.2769724
          ],
          [
            113.2051253,
            23.2770432
          ]
        ]
      }
    },
    {
      "type": "Feature",
      "properties": {
        "highway": "tertiary",
        "name": "\u5927\u7530\u4e2d\u5fc3\u8857",
        "name:en": "Datian Zhongxin Street",
        "name:zh": "\u5927\u7530\u4e2d\u5fc3\u8857",
        "osmId": "way/542556594",
        "source": "OSM"
      },
      "geometry": {
        "type": "LineString",
        "coordinates": [
          [
            113.2015055,
            23.2732477
          ],
          [
            113.2015472,
            23.2716965
          ]
        ]
      }
    },
    {
      "type": "Feature",
      "properties": {
        "highway": "tertiary",
        "name": "\u5927\u7530\u4e1c\u8def",
        "name:en": "Datian East Road",
        "name:zh": "\u5927\u7530\u4e1c\u8def",
        "osmId": "way/542556596",
        "source": "OSM"
      },
      "geometry": {
        "type": "LineString",
        "coordinates": [
          [
            113.2015055,
            23.2732477
          ],
          [
            113.2016092,
            23.2732703
          ],
          [
            113.2019861,
            23.2733526
          ],
          [
            113.2025379,
            23.2734847
          ],
          [
            113.2047762,
            23.2740176
          ]
        ]
      }
    },
    {
      "type": "Feature",
      "properties": {
        "highway": "unclassified",
        "name": "\u9ad8\u7530\u5357\u8857",
        "name:en": "Gaotian South Street",
        "name:zh": "\u9ad8\u7530\u5357\u8857",
        "osmId": "way/542556598",
        "source": "OSM"
      },
      "geometry": {
        "type": "LineString",
        "coordinates": [
          [
            113.2053113,
            23.2724759
          ],
          [
            113.2051795,
            23.2724579
          ],
          [
            113.2040596,
            23.2722993
          ],
          [
            113.2037249,
            23.2722542
          ],
          [
            113.2033438,
            23.2721828
          ],
          [
            113.2027331,
            23.2720327
          ],
          [
            113.2019514,
            23.2718148
          ],
          [
            113.2015472,
            23.2716965
          ]
        ]
      }
    },
    {
      "type": "Feature",
      "properties": {
        "highway": "tertiary",
        "name": "\u5927\u7530\u5357\u8857",
        "name:en": "Datian South Street",
        "name:zh": "\u5927\u7530\u5357\u8857",
        "osmId": "way/542556600",
        "source": "OSM"
      },
      "geometry": {
        "type": "LineString",
        "coordinates": [
          [
            113.1976685,
            23.2705532
          ],
          [
            113.1971491,
            23.2703999
          ],
          [
            113.196426,
            23.2701784
          ],
          [
            113.1962786,
            23.2701394
          ],
          [
            113.1962807,
            23.2701334
          ],
          [
            113.1962023,
            23.2701264
          ],
          [
            113.1961278,
            23.2701264
          ],
          [
            113.1959229,
            23.2701513
          ],
          [
            113.1952627,
            23.2702757
          ],
          [
            113.1941636,
            23.2705293
          ],
          [
            113.1937553,
            23.2706303
          ]
        ]
      }
    },
    {
      "type": "Feature",
      "properties": {
        "highway": "tertiary",
        "name": "\u5b66\u82d1\u8def",
        "name:en": "Xueyuan Road",
        "name:zh": "\u5b66\u82d1\u8def",
        "osmId": "way/542556605",
        "source": "OSM"
      },
      "geometry": {
        "type": "LineString",
        "coordinates": [
          [
            113.2044225,
            23.2767234
          ],
          [
            113.2044085,
            23.2765778
          ],
          [
            113.2043303,
            23.2757796
          ],
          [
            113.2043147,
            23.275558
          ],
          [
            113.2043083,
            23.2754456
          ]
        ]
      }
    },
    {
      "type": "Feature",
      "properties": {
        "highway": "unclassified",
        "osmId": "way/542556607",
        "source": "OSM"
      },
      "geometry": {
        "type": "LineString",
        "coordinates": [
          [
            113.2049248,
            23.2740521
          ],
          [
            113.2052551,
            23.2728452
          ],
          [
            113.2052842,
            23.27272
          ],
          [
            113.2053065,
            23.2725291
          ],
          [
            113.2053113,
            23.2724759
          ],
          [
            113.2053199,
            23.2723814
          ]
        ]
      }
    },
    {
      "type": "Feature",
      "properties": {
        "highway": "unclassified",
        "osmId": "way/542556609",
        "source": "OSM"
      },
      "geometry": {
        "type": "LineString",
        "coordinates": [
          [
            113.2015472,
            23.2716965
          ],
          [
            113.2015651,
            23.2716037
          ]
        ]
      }
    },
    {
      "type": "Feature",
      "properties": {
        "highway": "tertiary",
        "name": "\u9ad8\u7530\u5357\u8857",
        "name:en": "Gaotian South Street",
        "name:zh": "\u9ad8\u7530\u5357\u8857",
        "osmId": "way/542556610",
        "source": "OSM"
      },
      "geometry": {
        "type": "LineString",
        "coordinates": [
          [
            113.2015472,
            23.2716965
          ],
          [
            113.2011195,
            23.2715805
          ],
          [
            113.2006302,
            23.2714288
          ],
          [
            113.2001379,
            23.2712826
          ],
          [
            113.1995556,
            23.2711093
          ],
          [
            113.1991918,
            23.271001
          ],
          [
            113.1985256,
            23.2708061
          ],
          [
            113.1976685,
            23.2705532
          ]
        ]
      }
    },
    {
      "type": "Feature",
      "properties": {
        "bridge": "yes",
        "highway": "unclassified",
        "layer": "1",
        "osmId": "way/542556613",
        "source": "OSM"
      },
      "geometry": {
        "type": "LineString",
        "coordinates": [
          [
            113.2053199,
            23.2723814
          ],
          [
            113.2053221,
            23.2722542
          ]
        ]
      }
    },
    {
      "type": "Feature",
      "properties": {
        "highway": "unclassified",
        "osmId": "way/542556615",
        "source": "OSM"
      },
      "geometry": {
        "type": "LineString",
        "coordinates": [
          [
            113.2053221,
            23.2722542
          ],
          [
            113.2053154,
            23.2720387
          ],
          [
            113.2052864,
            23.2717904
          ],
          [
            113.205235,
            23.2711152
          ],
          [
            113.2051916,
            23.2707467
          ],
          [
            113.2051062,
            23.2706738
          ],
          [
            113.2042531,
            23.2706546
          ],
          [
            113.2036467,
            23.2705513
          ],
          [
            113.2035654,
            23.270394
          ],
          [
            113.2034133,
            23.2687626
          ]
        ]
      }
    },
    {
      "type": "Feature",
      "properties": {
        "bridge": "yes",
        "highway": "unclassified",
        "layer": "1",
        "osmId": "way/542556621",
        "source": "OSM"
      },
      "geometry": {
        "type": "LineString",
        "coordinates": [
          [
            113.1963027,
            23.2700619
          ],
          [
            113.1963371,
            23.26987
          ]
        ]
      }
    },
    {
      "type": "Feature",
      "properties": {
        "bridge": "yes",
        "highway": "unclassified",
        "layer": "1",
        "osmId": "way/542556626",
        "source": "OSM"
      },
      "geometry": {
        "type": "LineString",
        "coordinates": [
          [
            113.2015651,
            23.2716037
          ],
          [
            113.2016196,
            23.2714295
          ]
        ]
      }
    },
    {
      "type": "Feature",
      "properties": {
        "highway": "unclassified",
        "osmId": "way/542556628",
        "source": "OSM"
      },
      "geometry": {
        "type": "LineString",
        "coordinates": [
          [
            113.2016196,
            23.2714295
          ],
          [
            113.2016306,
            23.2713311
          ],
          [
            113.2017075,
            23.270719
          ],
          [
            113.2017586,
            23.2700771
          ],
          [
            113.2018241,
            23.2685628
          ]
        ]
      }
    },
    {
      "type": "Feature",
      "properties": {
        "highway": "service",
        "osmId": "way/542888849",
        "source": "OSM"
      },
      "geometry": {
        "type": "LineString",
        "coordinates": [
          [
            113.2133633,
            23.2836846
          ],
          [
            113.2133621,
            23.2833144
          ],
          [
            113.2133606,
            23.2828523
          ],
          [
            113.2133613,
            23.2824924
          ],
          [
            113.2133633,
            23.2814227
          ],
          [
            113.2133689,
            23.2806976
          ],
          [
            113.2133661,
            23.2803785
          ],
          [
            113.2133606,
            23.2802866
          ],
          [
            113.2133356,
            23.2801972
          ],
          [
            113.2132855,
            23.2800977
          ],
          [
            113.2131938,
            23.279993
          ],
          [
            113.2130826,
            23.2799139
          ],
          [
            113.2129993,
            23.2798705
          ],
          [
            113.2128853,
            23.2798322
          ],
          [
            113.2127797,
            23.279822
          ],
          [
            113.2126657,
            23.279822
          ],
          [
            113.2114296,
            23.2798205
          ],
          [
            113.2112368,
            23.279821
          ],
          [
            113.2109052,
            23.2798218
          ],
          [
            113.2088622,
            23.2798159
          ],
          [
            113.2086899,
            23.2798159
          ],
          [
            113.2085315,
            23.2798286
          ],
          [
            113.2084148,
            23.2798593
          ],
          [
            113.2083286,
            23.2798925
          ],
          [
            113.2082036,
            23.2799614
          ],
          [
            113.2080924,
            23.2800686
          ],
          [
            113.2080146,
            23.2801707
          ],
          [
            113.2079506,
            23.2802856
          ],
          [
            113.2079145,
            23.2804056
          ],
          [
            113.2079062,
            23.2805639
          ],
          [
            113.207906,
            23.2806289
          ],
          [
            113.2079034,
            23.2816693
          ],
          [
            113.2079062,
            23.2832241
          ],
          [
            113.2079058,
            23.2833144
          ],
          [
            113.2079034,
            23.2839804
          ],
          [
            113.2079006,
            23.2847737
          ],
          [
            113.2078978,
            23.2851873
          ]
        ]
      }
    },
    {
      "type": "Feature",
      "properties": {
        "highway": "tertiary",
        "name": "\u5927\u7530\u4e1c\u8def",
        "name:en": "Datian East Road",
        "name:zh": "\u5927\u7530\u4e1c\u8def",
        "osmId": "way/543241421",
        "source": "OSM"
      },
      "geometry": {
        "type": "LineString",
        "coordinates": [
          [
            113.2063531,
            23.2743752
          ],
          [
            113.2070509,
            23.274525
          ],
          [
            113.2079624,
            23.2745415
          ],
          [
            113.2082368,
            23.2745533
          ],
          [
            113.2083961,
            23.2745621
          ],
          [
            113.2084829,
            23.2745683
          ],
          [
            113.208581,
            23.2745907
          ],
          [
            113.2086395,
            23.2746349
          ]
        ]
      }
    },
    {
      "type": "Feature",
      "properties": {
        "highway": "tertiary",
        "oneway": "yes",
        "osmId": "way/543241422",
        "source": "OSM"
      },
      "geometry": {
        "type": "LineString",
        "coordinates": [
          [
            113.2044225,
            23.2767234
          ],
          [
            113.2044533,
            23.276731
          ],
          [
            113.2045751,
            23.276769
          ]
        ]
      }
    },
    {
      "type": "Feature",
      "properties": {
        "highway": "tertiary",
        "name": "\u6c5f\u77f3\u897f\u8def",
        "name:en": "Jiangshi West Road",
        "name:zh": "\u6c5f\u77f3\u897f\u8def",
        "oneway": "yes",
        "osmId": "way/543242215",
        "source": "OSM"
      },
      "geometry": {
        "type": "LineString",
        "coordinates": [
          [
            113.2051253,
            23.2770432
          ],
          [
            113.2050263,
            23.2771423
          ],
          [
            113.2049531,
            23.2772338
          ],
          [
            113.2048819,
            23.2773346
          ],
          [
            113.2048331,
            23.2774224
          ],
          [
            113.2047584,
            23.2774867
          ]
        ]
      }
    },
    {
      "type": "Feature",
      "properties": {
        "highway": "tertiary",
        "name": "\u79cb\u9e7f\u8def",
        "name:en": "Qiulu Road",
        "name:zh": "\u79cb\u9e7f\u8def",
        "oneway": "yes",
        "osmId": "way/693337764",
        "source": "OSM"
      },
      "geometry": {
        "type": "LineString",
        "coordinates": [
          [
            113.2107262,
            23.272909
          ],
          [
            113.2104466,
            23.2728672
          ],
          [
            113.2101611,
            23.2728274
          ],
          [
            113.2099054,
            23.2727906
          ],
          [
            113.2095751,
            23.2727426
          ],
          [
            113.2083395,
            23.2725665
          ]
        ]
      }
    },
    {
      "type": "Feature",
      "properties": {
        "highway": "tertiary",
        "name": "\u6c5f\u77f3\u897f\u8def",
        "name:en": "Jiangshi West Road",
        "name:zh": "\u6c5f\u77f3\u897f\u8def",
        "oneway": "yes",
        "osmId": "way/724384526",
        "source": "OSM"
      },
      "geometry": {
        "type": "LineString",
        "coordinates": [
          [
            113.2074637,
            23.2755696
          ],
          [
            113.2071018,
            23.2757834
          ],
          [
            113.2065953,
            23.276073
          ],
          [
            113.2064447,
            23.2761592
          ],
          [
            113.2058848,
            23.2765176
          ],
          [
            113.2055004,
            23.2767641
          ],
          [
            113.2052506,
            23.2769389
          ],
          [
            113.2051253,
            23.2770432
          ]
        ]
      }
    },
    {
      "type": "Feature",
      "properties": {
        "highway": "tertiary",
        "name": "\u6c5f\u77f3\u897f\u8def",
        "name:en": "Jiangshi West Road",
        "name:zh": "\u6c5f\u77f3\u897f\u8def",
        "oneway": "yes",
        "osmId": "way/724384535",
        "source": "OSM"
      },
      "geometry": {
        "type": "LineString",
        "coordinates": [
          [
            113.2078186,
            23.275269
          ],
          [
            113.2080052,
            23.275154
          ],
          [
            113.2081307,
            23.2750749
          ]
        ]
      }
    },
    {
      "type": "Feature",
      "properties": {
        "highway": "residential",
        "name": "\u6c99\u6eaa\u4e2d\u8def",
        "osmId": "way/855583570",
        "source": "OSM"
      },
      "geometry": {
        "type": "LineString",
        "coordinates": [
          [
            113.1939031,
            23.2762505
          ],
          [
            113.1939305,
            23.2762054
          ],
          [
            113.1939553,
            23.2761583
          ],
          [
            113.1940047,
            23.2761328
          ],
          [
            113.1940957,
            23.2761273
          ],
          [
            113.1951977,
            23.2762182
          ],
          [
            113.1967747,
            23.2765429
          ]
        ]
      }
    },
    {
      "type": "Feature",
      "properties": {
        "highway": "residential",
        "name": "\u6c99\u6eaa\u4e1c\u8def",
        "osmId": "way/855583573",
        "source": "OSM"
      },
      "geometry": {
        "type": "LineString",
        "coordinates": [
          [
            113.1967747,
            23.2765429
          ],
          [
            113.1993261,
            23.2765158
          ],
          [
            113.1995474,
            23.2765045
          ]
        ]
      }
    },
    {
      "type": "Feature",
      "properties": {
        "highway": "tertiary",
        "name": "\u5c0f\u5858\u5357\u8def",
        "osmId": "way/855583574",
        "source": "OSM"
      },
      "geometry": {
        "type": "LineString",
        "coordinates": [
          [
            113.1995474,
            23.2765045
          ],
          [
            113.2012442,
            23.2764031
          ],
          [
            113.201707,
            23.2764158
          ],
          [
            113.2038914,
            23.2766326
          ],
          [
            113.2041332,
            23.2766646
          ],
          [
            113.2043207,
            23.2766984
          ],
          [
            113.2044225,
            23.2767234
          ]
        ]
      }
    },
    {
      "type": "Feature",
      "properties": {
        "highway": "unclassified",
        "osmId": "way/855590060",
        "source": "OSM"
      },
      "geometry": {
        "type": "LineString",
        "coordinates": [
          [
            113.2066952,
            23.2783355
          ],
          [
            113.2066449,
            23.2782846
          ],
          [
            113.206556,
            23.2781953
          ],
          [
            113.2064906,
            23.2781706
          ],
          [
            113.2059559,
            23.2781413
          ],
          [
            113.2059426,
            23.2781424
          ],
          [
            113.2058854,
            23.278147
          ],
          [
            113.2054195,
            23.2781954
          ],
          [
            113.2047106,
            23.2784
          ]
        ]
      }
    },
    {
      "type": "Feature",
      "properties": {
        "highway": "residential",
        "osmId": "way/855590061",
        "source": "OSM"
      },
      "geometry": {
        "type": "LineString",
        "coordinates": [
          [
            113.205863,
            23.2788788
          ],
          [
            113.2046148,
            23.2791655
          ]
        ]
      }
    },
    {
      "type": "Feature",
      "properties": {
        "highway": "unclassified",
        "osmId": "way/855590062",
        "source": "OSM"
      },
      "geometry": {
        "type": "LineString",
        "coordinates": [
          [
            113.2012442,
            23.2764031
          ],
          [
            113.2011708,
            23.2768918
          ],
          [
            113.2009219,
            23.2793109
          ],
          [
            113.2009184,
            23.279349
          ],
          [
            113.2008558,
            23.2800379
          ],
          [
            113.2007083,
            23.280504
          ],
          [
            113.2007306,
            23.2808257
          ],
          [
            113.2007864,
            23.2812532
          ],
          [
            113.2008147,
            23.2813842
          ],
          [
            113.2008593,
            23.2814939
          ],
          [
            113.2008749,
            23.2815323
          ],
          [
            113.2008685,
            23.2816505
          ],
          [
            113.2007878,
            23.2817559
          ],
          [
            113.2006238,
            23.2817559
          ],
          [
            113.2004892,
            23.2817252
          ],
          [
            113.2002099,
            23.2816175
          ],
          [
            113.2000227,
            23.2815799
          ],
          [
            113.1997724,
            23.2815548
          ],
          [
            113.1996307,
            23.2815611
          ],
          [
            113.1994724,
            23.2816177
          ],
          [
            113.1992702,
            23.2816812
          ],
          [
            113.1990581,
            23.2817324
          ],
          [
            113.1988489,
            23.2817453
          ],
          [
            113.1986408,
            23.2817647
          ],
          [
            113.1976932,
            23.2818454
          ],
          [
            113.1975257,
            23.2819022
          ]
        ]
      }
    },
    {
      "type": "Feature",
      "properties": {
        "highway": "unclassified",
        "osmId": "way/855590063",
        "source": "OSM"
      },
      "geometry": {
        "type": "LineString",
        "coordinates": [
          [
            113.1973649,
            23.2818384
          ],
          [
            113.1952751,
            23.2809112
          ],
          [
            113.195076,
            23.2808736
          ],
          [
            113.1949322,
            23.2808736
          ],
          [
            113.1943546,
            23.2810355
          ],
          [
            113.1933391,
            23.2794689
          ],
          [
            113.193308,
            23.2794004
          ],
          [
            113.1933001,
            23.2793462
          ],
          [
            113.1933169,
            23.2793141
          ],
          [
            113.1933671,
            23.2792757
          ],
          [
            113.1934866,
            23.2792448
          ],
          [
            113.1939024,
            23.2792873
          ],
          [
            113.1939904,
            23.2792873
          ],
          [
            113.1939972,
            23.2791703
          ],
          [
            113.1940107,
            23.2789668
          ],
          [
            113.1936223,
            23.2788923
          ],
          [
            113.1932292,
            23.2787954
          ],
          [
            113.1929415,
            23.2787061
          ],
          [
            113.1928256,
            23.2785811
          ],
          [
            113.192798,
            23.2781826
          ],
          [
            113.1926639,
            23.2762429
          ]
        ]
      }
    },
    {
      "type": "Feature",
      "properties": {
        "highway": "residential",
        "osmId": "way/855590066",
        "source": "OSM"
      },
      "geometry": {
        "type": "LineString",
        "coordinates": [
          [
            113.194222,
            23.2734471
          ],
          [
            113.1948309,
            23.2736047
          ],
          [
            113.1960584,
            23.2740123
          ],
          [
            113.1965584,
            23.274221
          ],
          [
            113.1966563,
            23.2742798
          ],
          [
            113.1966751,
            23.2743247
          ],
          [
            113.1966412,
            23.2744007
          ],
          [
            113.1965998,
            23.27457
          ],
          [
            113.1965961,
            23.2746944
          ],
          [
            113.1966074,
            23.2750746
          ],
          [
            113.1966299,
            23.2754098
          ],
          [
            113.1966863,
            23.2754201
          ],
          [
            113.1967691,
            23.2761216
          ],
          [
            113.1967747,
            23.2765429
          ],
          [
            113.1967783,
            23.2767101
          ],
          [
            113.1966059,
            23.2776617
          ],
          [
            113.1965988,
            23.2778849
          ],
          [
            113.1966713,
            23.2784238
          ],
          [
            113.1965925,
            23.278509
          ],
          [
            113.1964587,
            23.278576
          ],
          [
            113.1962813,
            23.2785792
          ],
          [
            113.1954923,
            23.2786044
          ],
          [
            113.1946671,
            23.2787114
          ],
          [
            113.1943733,
            23.2787747
          ]
        ]
      }
    },
    {
      "type": "Feature",
      "properties": {
        "highway": "tertiary",
        "oneway": "yes",
        "osmId": "way/878224302",
        "source": "OSM"
      },
      "geometry": {
        "type": "LineString",
        "coordinates": [
          [
            113.2053385,
            23.2837669
          ],
          [
            113.2054044,
            23.2835687
          ],
          [
            113.2054614,
            23.2834173
          ],
          [
            113.2055554,
            23.2831696
          ],
          [
            113.2055572,
            23.2831645
          ],
          [
            113.2056447,
            23.2829262
          ],
          [
            113.2057125,
            23.2827196
          ],
          [
            113.2057818,
            23.2824904
          ],
          [
            113.2058234,
            23.282339
          ],
          [
            113.2058773,
            23.2821196
          ],
          [
            113.205922,
            23.2819116
          ],
          [
            113.2059574,
            23.2817036
          ],
          [
            113.2059994,
            23.2814681
          ],
          [
            113.2060237,
            23.2813314
          ],
          [
            113.2060915,
            23.2809281
          ],
          [
            113.2061531,
            23.2805305
          ],
          [
            113.2062101,
            23.2801739
          ],
          [
            113.2063056,
            23.2795555
          ],
          [
            113.2063472,
            23.2792484
          ],
          [
            113.206398,
            23.2789003
          ],
          [
            113.2064242,
            23.2788069
          ],
          [
            113.2064704,
            23.2787078
          ],
          [
            113.206532,
            23.2786031
          ],
          [
            113.2065875,
            23.2785423
          ],
          [
            113.2066615,
            23.2784814
          ],
          [
            113.2067246,
            23.278439
          ],
          [
            113.2067433,
            23.2784297
          ],
          [
            113.2068066,
            23.2783983
          ],
          [
            113.2068186,
            23.2783923
          ],
          [
            113.2069126,
            23.2783569
          ],
          [
            113.2070928,
            23.2782975
          ],
          [
            113.207196,
            23.2782663
          ],
          [
            113.2073008,
            23.2782295
          ],
          [
            113.2074101,
            23.2781814
          ],
          [
            113.2075211,
            23.2781181
          ],
          [
            113.2076047,
            23.2780527
          ],
          [
            113.207696,
            23.2779592
          ],
          [
            113.2077533,
            23.2778824
          ],
          [
            113.2078039,
            23.2777898
          ],
          [
            113.2078352,
            23.2777019
          ],
          [
            113.2078581,
            23.2776234
          ],
          [
            113.2078702,
            23.277549
          ],
          [
            113.2078772,
            23.2774549
          ],
          [
            113.2078787,
            23.2773865
          ],
          [
            113.2078742,
            23.2772801
          ],
          [
            113.2078586,
            23.2771128
          ],
          [
            113.2078388,
            23.2769602
          ],
          [
            113.2078235,
            23.2767989
          ],
          [
            113.2078119,
            23.2766085
          ],
          [
            113.2078063,
            23.2764808
          ],
          [
            113.2078019,
            23.2763351
          ],
          [
            113.2077969,
            23.2761221
          ],
          [
            113.2077995,
            23.2759231
          ],
          [
            113.2077913,
            23.2758282
          ],
          [
            113.2077668,
            23.275777
          ],
          [
            113.2077273,
            23.2757271
          ],
          [
            113.2076729,
            23.2756726
          ],
          [
            113.2076143,
            23.2756363
          ],
          [
            113.2075229,
            23.2755886
          ],
          [
            113.2074637,
            23.2755696
          ]
        ]
      }
    },
    {
      "type": "Feature",
      "properties": {
        "highway": "tertiary",
        "name": "\u5b66\u82d1\u8def",
        "name:en": "Xueyuan Road",
        "name:zh": "\u5b66\u82d1\u8def",
        "osmId": "way/917431585",
        "source": "OSM"
      },
      "geometry": {
        "type": "LineString",
        "coordinates": [
          [
            113.2042896,
            23.2752132
          ],
          [
            113.2043057,
            23.2750758
          ],
          [
            113.2043415,
            23.2749444
          ],
          [
            113.2044643,
            23.2746489
          ],
          [
            113.2047114,
            23.2741487
          ],
          [
            113.2047762,
            23.2740176
          ]
        ]
      }
    },
    {
      "type": "Feature",
      "properties": {
        "highway": "tertiary",
        "name": "\u5927\u7530\u4e1c\u8def",
        "name:en": "Datian East Road",
        "name:zh": "\u5927\u7530\u4e1c\u8def",
        "osmId": "way/917431586",
        "source": "OSM"
      },
      "geometry": {
        "type": "LineString",
        "coordinates": [
          [
            113.2047762,
            23.2740176
          ],
          [
            113.2049248,
            23.2740521
          ],
          [
            113.2054183,
            23.2742377
          ],
          [
            113.205825,
            23.2743514
          ],
          [
            113.2061602,
            23.2743796
          ],
          [
            113.2063531,
            23.2743752
          ]
        ]
      }
    },
    {
      "type": "Feature",
      "properties": {
        "highway": "tertiary",
        "name": "\u7530\u5357\u8def",
        "name:en": "Tiannan Road",
        "name:zh": "\u7530\u5357\u8def",
        "osmId": "way/917431587",
        "source": "OSM"
      },
      "geometry": {
        "type": "LineString",
        "coordinates": [
          [
            113.2065876,
            23.2760078
          ],
          [
            113.206486,
            23.2752299
          ],
          [
            113.2063816,
            23.2745501
          ],
          [
            113.2063531,
            23.2743752
          ]
        ]
      }
    },
    {
      "type": "Feature",
      "properties": {
        "highway": "service",
        "oneway": "yes",
        "osmId": "way/917442109",
        "source": "OSM"
      },
      "geometry": {
        "type": "LineString",
        "coordinates": [
          [
            113.2043083,
            23.2754456
          ],
          [
            113.2041552,
            23.2754317
          ],
          [
            113.2041594,
            23.2753758
          ],
          [
            113.2041732,
            23.2753141
          ],
          [
            113.2041842,
            23.2752804
          ],
          [
            113.204214,
            23.2752442
          ]
        ]
      }
    },
    {
      "type": "Feature",
      "properties": {
        "highway": "service",
        "oneway": "yes",
        "osmId": "way/917442110",
        "source": "OSM"
      },
      "geometry": {
        "type": "LineString",
        "coordinates": [
          [
            113.204214,
            23.2752442
          ],
          [
            113.2042896,
            23.2752132
          ]
        ]
      }
    },
    {
      "type": "Feature",
      "properties": {
        "highway": "tertiary",
        "name": "\u5b66\u82d1\u8def",
        "name:en": "Xueyuan Road",
        "name:zh": "\u5b66\u82d1\u8def",
        "osmId": "way/917442111",
        "source": "OSM"
      },
      "geometry": {
        "type": "LineString",
        "coordinates": [
          [
            113.2043083,
            23.2754456
          ],
          [
            113.2043012,
            23.2753289
          ],
          [
            113.2042896,
            23.2752132
          ]
        ]
      }
    },
    {
      "type": "Feature",
      "properties": {
        "highway": "tertiary",
        "oneway": "yes",
        "osmId": "way/944142880",
        "source": "OSM"
      },
      "geometry": {
        "type": "LineString",
        "coordinates": [
          [
            113.2051253,
            23.2770432
          ],
          [
            113.2050455,
            23.2770172
          ],
          [
            113.2049261,
            23.2769767
          ],
          [
            113.2048362,
            23.2769483
          ],
          [
            113.2047035,
            23.2768904
          ],
          [
            113.2045758,
            23.2768313
          ],
          [
            113.2044225,
            23.2767234
          ]
        ]
      }
    },
    {
      "type": "Feature",
      "properties": {
        "highway": "unclassified",
        "osmId": "way/1085370286",
        "source": "OSM"
      },
      "geometry": {
        "type": "LineString",
        "coordinates": [
          [
            113.1963371,
            23.26987
          ],
          [
            113.1964133,
            23.2695397
          ],
          [
            113.196462,
            23.2693276
          ],
          [
            113.1964847,
            23.2690182
          ],
          [
            113.1965745,
            23.2686483
          ],
          [
            113.1966414,
            23.2683584
          ],
          [
            113.1966612,
            23.2682762
          ],
          [
            113.1966799,
            23.2681876
          ],
          [
            113.196692,
            23.2681268
          ],
          [
            113.1967056,
            23.2679987
          ],
          [
            113.1967128,
            23.2679127
          ],
          [
            113.1967158,
            23.2678336
          ],
          [
            113.196717,
            23.2678012
          ],
          [
            113.1967166,
            23.2676905
          ]
        ]
      }
    },
    {
      "type": "Feature",
      "properties": {
        "highway": "residential",
        "osmId": "way/1360645904",
        "source": "OSM"
      },
      "geometry": {
        "type": "LineString",
        "coordinates": [
          [
            113.1948309,
            23.2736047
          ],
          [
            113.195084,
            23.273007
          ],
          [
            113.1953071,
            23.2724922
          ],
          [
            113.1953573,
            23.272359
          ],
          [
            113.1954186,
            23.2722693
          ],
          [
            113.1955079,
            23.2722181
          ],
          [
            113.1955859,
            23.2721669
          ],
          [
            113.195625,
            23.2720977
          ],
          [
            113.195678,
            23.2718569
          ],
          [
            113.1957588,
            23.271442
          ],
          [
            113.1957728,
            23.2712908
          ],
          [
            113.1958257,
            23.2710629
          ],
          [
            113.1959094,
            23.2708579
          ],
          [
            113.1959401,
            23.2708016
          ],
          [
            113.1960739,
            23.2705839
          ],
          [
            113.1961882,
            23.2703251
          ],
          [
            113.1962807,
            23.2701334
          ]
        ]
      }
    },
    {
      "type": "Feature",
      "properties": {
        "highway": "residential",
        "osmId": "way/1360645905",
        "source": "OSM"
      },
      "geometry": {
        "type": "LineString",
        "coordinates": [
          [
            113.1995556,
            23.2711093
          ],
          [
            113.1993951,
            23.2714432
          ],
          [
            113.1993535,
            23.2715538
          ],
          [
            113.1992938,
            23.2717129
          ]
        ]
      }
    },
    {
      "type": "Feature",
      "properties": {
        "highway": "residential",
        "osmId": "way/1360645906",
        "source": "OSM"
      },
      "geometry": {
        "type": "LineString",
        "coordinates": [
          [
            113.1993535,
            23.2715538
          ],
          [
            113.1998255,
            23.27173
          ],
          [
            113.200411,
            23.2718914
          ],
          [
            113.2006675,
            23.2719554
          ]
        ]
      }
    },
    {
      "type": "Feature",
      "properties": {
        "highway": "unclassified",
        "osmId": "way/1360645907",
        "source": "OSM"
      },
      "geometry": {
        "type": "LineString",
        "coordinates": [
          [
            113.2017075,
            23.270719
          ],
          [
            113.2020421,
            23.2707516
          ]
        ]
      }
    },
    {
      "type": "Feature",
      "properties": {
        "highway": "residential",
        "osmId": "way/1360645908",
        "source": "OSM"
      },
      "geometry": {
        "type": "LineString",
        "coordinates": [
          [
            113.201996,
            23.2786594
          ],
          [
            113.2023801,
            23.2786506
          ],
          [
            113.2026081,
            23.278622
          ],
          [
            113.202757,
            23.2785977
          ],
          [
            113.2029058,
            23.2785867
          ],
          [
            113.2030258,
            23.2785867
          ],
          [
            113.2032563,
            23.2786198
          ],
          [
            113.2034579,
            23.278655
          ],
          [
            113.2036644,
            23.2786837
          ],
          [
            113.2038637,
            23.2786837
          ],
          [
            113.2040893,
            23.2786837
          ],
          [
            113.2043534,
            23.2786506
          ],
          [
            113.2045742,
            23.2786131
          ],
          [
            113.2046266,
            23.2786163
          ]
        ]
      }
    },
    {
      "type": "Feature",
      "properties": {
        "highway": "residential",
        "osmId": "way/1360645909",
        "source": "OSM"
      },
      "geometry": {
        "type": "LineString",
        "coordinates": [
          [
            113.2016088,
            23.2781298
          ],
          [
            113.2019327,
            23.2781744
          ],
          [
            113.2020137,
            23.2782101
          ],
          [
            113.2020752,
            23.2782339
          ],
          [
            113.2020979,
            23.2783112
          ],
          [
            113.2020785,
            23.2783856
          ],
          [
            113.201996,
            23.2786594
          ],
          [
            113.2019327,
            23.2789717
          ],
          [
            113.2018712,
            23.2794418
          ],
          [
            113.2018712,
            23.2795875
          ],
          [
            113.2018712,
            23.2797036
          ],
          [
            113.2018615,
            23.2798017
          ],
          [
            113.2018161,
            23.279885
          ],
          [
            113.2017643,
            23.2799683
          ]
        ]
      }
    },
    {
      "type": "Feature",
      "properties": {
        "highway": "residential",
        "osmId": "way/1360645910",
        "source": "OSM"
      },
      "geometry": {
        "type": "LineString",
        "coordinates": [
          [
            113.2018712,
            23.2794418
          ],
          [
            113.2009184,
            23.279349
          ]
        ]
      }
    },
    {
      "type": "Feature",
      "properties": {
        "highway": "footway",
        "osmId": "way/1437110118",
        "source": "OSM"
      },
      "geometry": {
        "type": "LineString",
        "coordinates": [
          [
            113.207906,
            23.2806289
          ],
          [
            113.2108682,
            23.2806593
          ],
          [
            113.2108712,
            23.2805893
          ],
          [
            113.2109052,
            23.2798218
          ]
        ]
      }
    }
  ]
}